[{"OBJECT_NAME":"RESOURCESAT-2A","OBJECT_ID":"2016-074A","EPOCH":"2026-03-09T23:20:04.284384","MEAN_MOTION":14.21600566,"ECCENTRICITY":0.00024894,"INCLINATION":98.7596,"RA_OF_ASC_NODE":143.2604,"ARG_OF_PERICENTER":35.4222,"MEAN_ANOMALY":324.712,"EPHEMERIS_TYPE":0,"CLASSIFICATION_TYPE":"U","NORAD_CAT_ID":41877,"ELEMENT_SET_NO":999,"REV_AT_EPOCH":48020,"BSTAR":7.9593145e-5,"MEAN_MOTION_DOT":1.3e-6,"MEAN_MOTION_DDOT":0},{"OBJECT_NAME":"SPOT 3","OBJECT_ID":"1993-061A","EPOCH":"2026-03-09T18:05:40.485984","MEAN_MOTION":14.20063708,"ECCENTRICITY":0.00170754,"INCLINATION":98.8684,"RA_OF_ASC_NODE":132.6295,"ARG_OF_PERICENTER":164.8116,"MEAN_ANOMALY":195.3576,"EPHEMERIS_TYPE":0,"CLASSIFICATION_TYPE":"U","NORAD_CAT_ID":22823,"ELEMENT_SET_NO":999,"REV_AT_EPOCH":68046,"BSTAR":0.00010628684,"MEAN_MOTION_DOT":1.82e-6,"MEAN_MOTION_DDOT":0}]
